0 VANGUARD 2
1    11U 59001A   19169.52845106 -.00000087  00000-0 -50559-4 0  9999
2    11  32.8727 345.4103 1468628 351.4611   6.3334 11.85619785573396
0 VANGUARD 3
1    20U 59007A   19170.98691536 +.00000210 +00000-0 +85674-4 0  9995
2    20 033.3452 036.8840 1666961 138.7234 235.2148 11.55651425188542
0 EXPLORER 7
1    22U 59009A   19172.08353240 -.00000169  00000-0  10632-4 0  9995
2    22  50.2858   1.9592 0140143 314.5744  44.3831 14.94876105171110
0 TIROS 1
1    29U 60002B   19172.15362061 -.00000158  00000-0  74490-5 0  9997
2    29  48.3785 218.3571 0023557 123.6000 236.7164 14.74307981165206
0 SOLRAD 1 (GREB)
1    46U 60007B   19171.81458797 -.00000092 +00000-0 +46952-5 0  9994
2    46 066.6909 306.3504 0205320 039.8474 321.7504 14.49230645086561
0 EXOS D (AKEBONO)
1 19822U 89016A   19171.91813366 +.00010618 +14562-6 +18958-3 0  9996
2 19822 075.0237 148.1327 1787533 149.3612 222.5398 11.96030696996022
0 HST
1 20580U 90037B   19171.54508354  .00000306  00000-0  76157-5 0  9997
2 20580  28.4681 199.6830 0002864 140.3959 355.3680 15.09237087401178
0 GEOTAIL
1 22049U 92044A   19168.22676395 -.00000968  00000-0  00000+0 0  9994
2 22049  18.8751  58.4728 5690960 152.1144   0.4170  0.19235809 10848
0 APEX
1 23191U 94046A   19171.79849331  .00001273  00000-0  43600-4 0  9992
2 23191  69.9177 306.6962 0566783 298.1460  56.3509 14.47672893222403
0 RADIO ROSTO
1 23439U 94085A   19171.91074492 -.00000039 +00000-0 +10753-3 0  9994
2 23439 064.8165 112.5359 0146192 112.7790 248.8653 11.27568072008147
0 ERS 2
1 23560U 95021A   19171.86580909  .00000550  00000-0  27506-4 0  9991
2 23560  98.5046 272.0030 0002948 351.7980   8.3204 15.22574987286968
0 ISO
1 23715U 95062A   19170.31118229 -.00000332  00000-0 -62664-4 0  9993
2 23715   4.2757 329.7892 8370643 306.7509   2.7378  1.02011156 87599
0 SIRIUS 3
1 25492U 98056B   19171.59555685 -.00000148 +00000-0 +00000-0 0  9991
2 25492 007.5678 049.4025 0005186 339.8773 025.2270 00.99034254075838
0 ISS (ZARYA)
1 25544U 98067A   19172.56401416  .00000765  00000-0  20669-4 0  9992
2 25544  51.6440 339.5743 0008188  72.6095   6.7410 15.51215389175933
0 XMM
1 25989U 99066A   19173.57329481 -.00000427  00000-0  00000+0 0  9996
2 25989  70.9733 332.1599 7606551  94.9750   0.1916  0.50134543 24570
0 TERRA
1 25994U 99068A   19172.14479441  .00000099  00000-0  32078-4 0  9997
2 25994  98.2049 246.6458 0001696  95.3514 264.7897 14.57120374 37554
0 AQUA
1 27424U 02022A   19171.97054817 +.00000027 +00000-0 +16006-4 0  9991
2 27424 098.2033 112.7815 0002957 059.4133 005.7279 14.57113690911085
0 INTEGRAL
1 27540U 02048A   19170.17506989  .00000609  00000-0  00000+0 0  9999
2 27540  49.7704 143.5394 8786602 278.6990   3.7050  0.37599597 17027
0 MICRO LABSAT
1 27600U 02056D   19171.85305659 -.00000006  00000-0  14357-4 0  9999
2 27600  98.4903 118.9440 0009760 237.4191 122.6050 14.29630029861621
0 SAUDISAT 1C
1 27607U 02058C   19171.91880737 -.00000049 +00000-0 +14044-4 0  9990
2 27607 064.5558 042.7882 0081276 256.1009 103.1043 14.75553331887232
0 THEMIS A
1 30580U 07004A   19171.48909258 -.00000266  00000-0  00000+0 0  9995
2 30580   9.4542  92.1736 8381193 306.5907   3.3486  0.87838275 43518
0 THEMIS D
1 30797U 07004D   19169.53701671 -.00000376  00000-0  00000+0 0  9999
2 30797   8.0549  53.0640 8565009 351.3647   1.0104  0.73530218 43411
0 AGILE
1 31135U 07013A   19172.01898967  .00001683  00000-0  17346-4 0  9995
2 31135   2.4668 145.7322 0012451 276.7593  83.1044 15.31623475676362
0 COSMOS 2433 (GLONASS)
1 32275U 07052A   19171.65439314 -.00000065 +00000-0 +10000-3 0  9993
2 32275 065.8515 041.0246 0001553 285.2803 055.0582 02.13104348090673
0 GIOVE-B
1 32781U 08020A   19170.29665951 -.00000041 +00000-0 +00000-0 0  9998
2 32781 057.7048 099.8153 0002468 264.1091 095.8342 01.65405487068186
0 IBEX
1 33401U 08051A   17218.24856028 -.00002000 +00000-0 +00000-0 0  9992
2 33401 030.2157 094.3610 7460229 003.0421 007.6340 00.10111689003699
0 NOAA 19
1 33591U 09005A   19171.88528360 +.00000060 +00000-0 +58077-4 0  9991
2 33591 099.1795 163.0616 0014269 016.6976 343.4662 14.12359316533951
0 SPIRALE B
1 33752U 09008D   19171.66102889  .00002465  00000-0  48670-3 0  9991
2 33752   2.1425 339.8395 6924030  72.7276 348.0800  2.74742330 94807
0 PRISMA (TANGO)
1 36827U 10028F   19171.46852474 -.00000002 +00000-0 +13025-4 0  9994
2 36827 098.5226 346.6990 0042612 357.3312 002.7644 14.42399226334551
0 SPEKTR R
1 37755U 11037A   18264.20000000 +.00000083 +00000-0 +00000-0 0  9993
2 37755 051.5880 113.3680 8331057 181.9940 359.9340 00.11829941003008
0 NIGERIASAT X
1 37790U 11044C   19172.09759461 -.00000014  00000-0  65783-5 0  9997
2 37790  98.0427 242.6254 0013661  73.1954 287.0752 14.58606492418031
0 TACSAT 4
1 37818U 11052A   19171.84778216 +.00000128 +00000-0 +30237-3 0  9997
2 37818 063.2235 009.5572 4585930 220.6765 215.3591 06.02807369170061
0 METOP-B
1 38771U 12049A   19171.92805639 -.00000013 +00000-0 +14128-4 0  9998
2 38771 098.7029 231.2264 0000752 039.9298 074.9974 14.21490708350528
0 KMS 3-2
1 39026U 12072A   19171.95618702  .00000850  00000-0  33246-4 0  9994
2 39026  97.2104 175.0310 0039966  93.1374 267.4439 15.27807581361944
0 SKYNET 5D
1 39034U 12075A   19171.83504587 +.00000094 +00000-0 +00000-0 0  9996
2 39034 000.0762 343.3153 0003941 120.3540 158.4814 01.00274996023565
0 GLOBALSTAR M096
1 39075U 13005D   19171.86036678 -.00000094  00000-0  53531-4 0  9991
2 39075  52.0091  51.7496 0001077  76.3227 283.7759 12.62265297295286
0 LANDSAT 8
1 39084U 13008A   19172.09815461  .00000011  00000-0  12499-4 0  9991
2 39084  98.2240 242.0402 0001192  89.0238 271.1103 14.57105998337937
0 SAPPHIRE
1 39088U 13009C   19172.19295333 -.00000017  00000-0  93609-5 0  9997
2 39088  98.4982  15.3358 0010222 282.3569  77.6472 14.34193000330573
0 FUNCUBE 1
1 39444U 13066AE  19172.00131363  .00000144  00000-0  24074-4 0  9997
2 39444  97.5602 187.3210 0058661  21.8567 338.5130 14.81933497300276
0 SOCRATES
1 39768U 14029C   19172.15995162 -.00000007  00000-0  55265-5 0  9993
2 39768  97.8654 269.0421 0008182  84.7658 275.4480 14.84353836274902
0 APRIZESAT 10
1 40019U 14033K   19172.14746251 -.00000025  00000-0  39154-5 0  9990
2 40019  97.7445  17.4105 0085156 143.4550 217.2508 14.66993752267829
0 METEOR M2
1 40069U 14037A   19172.11394920 -.00000032  00000-0  47186-5 0  9990
2 40069  98.5506 217.3549 0004498 250.7721 109.2977 14.20662362256767
0 MERIDIAN 7
1 40296U 14069A   19171.87780707  .00000167  00000-0  00000+0 0  9997
2 40296  62.8901 162.5724 6799951 273.9389 273.9712  2.00625136 34006
0 MMS 1
1 40482U 15011A   19148.13194444 -.00000705  00000-0  00000+0 0  9991
2 40482  11.9965 117.2770 9052263  14.0170 334.0184  0.28546283 10110
0 DEORBITSAIL
1 40719U 15032E   19171.68893852 +.00000252 +00000-0 +43214-4 0  9997
2 40719 097.9085 063.4736 0015219 303.4816 056.4939 14.76737572212553
0 YAOGAN 27
1 40878U 15040A   19172.11354557 -.00000044  00000-0  00000+0 0  9996
2 40878 100.2873 226.3532 0007951 338.4798  21.5997 13.15961984183357
0 GALILEO 9 (205)
1 40889U 15045A   19171.83522141 -.00000050 +00000-0 +00000-0 0  9995
2 40889 056.4426 292.0703 0002271 035.2422 324.7786 01.70475557023486
0 NAVSTAR 75 (USA 265)
1 41019U 15062A   19171.05069241  .00000002  00000-0  00000+0 0  9996
2 41019  55.1859 131.1546 0047127 208.0938 151.6114  2.00564706 26605
0 COSMOS 2510
1 41032U 15066A   19172.49502255 -.00000946  00000-0  00000+0 0  9999
2 41032  63.1706 291.9162 7069412 269.6802 236.7820  2.00672383 26329
0 KMS 4
1 41332U 16009A   19171.73520065  .00000763  00000-0  26083-4 0  9995
2 41332  97.3636 240.1699 0021487 288.7520  71.1391 15.33244180188138
0 TIANGONG-2
1 41765U 16057A   19172.13634259  .00002120  00000-0  28215-4 0  9992
2 41765  42.7850 303.2253 0009160 291.1883  66.3644 15.61761669157658
0 PRATHAM
1 41783U 16059A   19171.71963015  .00000025  00000-0  14147-4 0  9993
2 41783  98.0672 231.2569 0033948  20.0543 340.1984 14.62995811145843
0 BANXING-2
1 41834U 16057H   19172.02778942  .00170838  22797-4  14908-3 0  9991
2 41834  42.7704 162.8046 0012170 128.7853 285.9971 16.12239941153275
0 GOKTURK-1A
1 41875U 16073A   19172.07117521  .00000008  00000-0  10801-4 0  9998
2 41875  98.1344  66.6036 0001469  76.7062 283.4306 14.62776489135583
0 ALTAIR PATHFINDER
1 42711U 98067LS  19171.55521155  .00030040  00000-0  15524-3 0  9990
2 42711  51.6343 280.1117 0000882 151.2475 208.8575 15.80829663119387
0 NJUST-1
1 42722U 98067MB  19171.46749147  .00145599  20398-4  25168-3 0  9992
2 42722  51.6293 258.7438 0005721 339.8876 110.0934 16.01975320118722
0 NSIGHT-1
1 42726U 98067MF  19171.87295220  .00015144  00000-0  12069-3 0  9991
2 42726  51.6367 297.5530 0004340 185.7234 174.3715 15.71400747118164
0 IRIDIUM 117
1 42808U 17039F   19171.87457039 +.00000045 +00000-0 +89446-5 0  9999
2 42808 086.3960 340.5997 0002600 081.0172 279.1318 14.34218411104005
0 IRIDIUM 119
1 42959U 17061E   19171.59890852 +.00000050 +00000-0 +10929-4 0  9999
2 42959 086.3969 012.3422 0002596 095.2241 264.9251 14.34219786088809
0 KESTREL EYE 2M
1 42982U 98067NE  19171.64807403  .00005017  00000-0  60498-4 0  9990
2 42982  51.6384 322.3652 0004394 146.7426 213.3845 15.62770841 94221
0 ASTERIA
1 43020U 98067NH  19171.64196016  .00017720  00000-0  14488-3 0  9996
2 43020  51.6433 309.7183 0001867 127.4424 232.6743 15.70646774 90160
0 DELLINGR (RBLE)
1 43021U 98067NJ  19171.94871373  .00005647  00000-0  66441-4 0  9998
2 43021  51.6392 320.6631 0002576 114.2728 245.8536 15.63130122 90044
0 CARBONITE 2
1 43115U 18004E   19172.16838726  .00000230  00000-0  13050-4 0  9996
2 43115  97.4865 239.2355 0008932 228.1234 131.9240 15.22302099 79850
0 O3B FM15
1 43231U 18024A   19171.68755339 -.00000028  00000-0  00000+0 0  9993
2 43231   0.0448  16.2186 0002859  74.8920 268.9207  5.00115432 23436
0 SENTINEL 3B
1 43437U 18039A   19172.18102953 -.00000004  00000-0  16590-4 0  9991
2 43437  98.6295 239.0328 0001427 116.9163 243.2164 14.26734142 60080
